DMSP 5D-3 F16 (USA 172) 
1 28054U 03048A   26155.71861367  .00000034  00000+0  41421-4 0  9994
2 28054  98.9894 179.4641 0007093 173.3065 266.3575 14.14481994167726
METEOSAT-9 (MSG-2)      
1 28912U 05049B   26155.75621890  .00000133  00000+0  00000+0 0  9992
2 28912   9.3326  54.2885 0002327  39.0161 117.8525  1.00267492  6874
DMSP 5D-3 F17 (USA 191) 
1 29522U 06050A   26155.72449566  .00000060  00000+0  53450-4 0  9999
2 29522  98.7378 162.5496 0011327  91.1781 269.0690 14.14991182 10663
FENGYUN 3A              
1 32958U 08026A   26154.44398347  .00000099  00000+0  67514-4 0  9997
2 32958  98.6881  95.5346 0008990 160.5127 199.6395 14.19568113933454
GOES 14                 
1 35491U 09033A   26155.71340612 -.00000227  00000+0  00000+0 0  9990
2 35491   1.6576  83.1922 0002132   0.0449 215.6931  1.00115460  6460
DMSP 5D-3 F18 (USA 210) 
1 35951U 09057A   26155.69503559  .00000313  00000+0  18504-3 0  9992
2 35951  98.9033 136.4917 0009940 289.3534  70.6564 14.14889724857820
EWS-G2 (GOES 15)        
1 36411U 10008A   26155.64900191  .00000031  00000+0  00000+0 0  9995
2 36411   1.2432  83.0639 0005507  35.5403  71.6790  1.00275883 59519
COMS 1                  
1 36744U 10032A   26152.73864208 -.00000334  00000+0  00000+0 0  9993
2 36744   4.7700  75.5552 0001064 351.7830 216.9341  1.00271905 50939
FENGYUN 3B              
1 37214U 10059A   26155.86591919 -.00000124  00000+0 -40807-4 0  9990
2 37214  98.9619 201.8276 0021258 219.7843 245.2915 14.14837303805688
SUOMI NPP               
1 37849U 11061A   26155.72352727  .00000101  00000+0  69015-4 0  9990
2 37849  98.7951  96.6850 0002187  33.5911 326.5403 14.19514710756673
METEOSAT-10 (MSG-3)     
1 38552U 12035B   26155.06604178  .00000005  00000+0  00000+0 0  9998
2 38552   4.6405  61.0782 0001855 337.7427 237.6281  1.00275536 50722
METOP-B                 
1 38771U 12049A   26155.65995525  .00000140  00000+0  83903-4 0  9998
2 38771  98.6509 207.4085 0002917  47.9914 312.1512 14.21429320711488
INSAT-3D                
1 39216U 13038B   26155.66183064 -.00000327  00000+0  00000+0 0  9990
2 39216   1.8934  82.6977 0000903 347.8902 190.2815  1.00269183 46952
FENGYUN 3C              
1 39260U 13052A   26155.81728595  .00000120  00000+0  82002-4 0  9993
2 39260  98.4980 130.2606 0015760  61.1665 299.1090 14.15752159656818
METEOR-M 2              
1 40069U 14037A   26155.82733130  .00000310  00000+0  16081-3 0  9992
2 40069  98.5111 132.0040 0007065  73.8225 286.3730 14.21458539617567
HIMAWARI-8              
1 40267U 14060A   26155.72923242 -.00000263  00000+0  00000+0 0  9990
2 40267   0.0104  23.0628 0000960  66.9419 206.3661  1.00272454 42631
FENGYUN 2G              
1 40367U 14090A   26154.80052208 -.00000292  00000+0  00000+0 0  9999
2 40367   5.6052  72.9774 0003440 153.7233  53.2439  1.00279146 41866
METEOSAT-11 (MSG-4)     
1 40732U 15034A   26155.63825520  .00000075  00000+0  00000+0 0  9999
2 40732   3.1710  71.1788 0001645   3.7819  57.2547  1.00276391  7091
ELEKTRO-L 2             
1 41105U 15074A   26155.06310514 -.00000107  00000+0  00000+0 0  9994
2 41105   6.6614  70.6831 0001329 280.5449 269.5208  1.00272364 38376
SENTINEL-3A             
1 41335U 16011A   26155.73344877  .00000142  00000+0  76601-4 0  9997
2 41335  98.6251 223.2954 0001307 105.8044 254.3280 14.26736527536280
INSAT-3DR               
1 41752U 16054A   26155.50846492 -.00000065  00000+0  00000+0 0  9992
2 41752   0.0746  88.2995 0010336 186.9710 234.7366  1.00271467 35696
HIMAWARI-9              
1 41836U 16064A   26155.62350534 -.00000263  00000+0  00000+0 0  9996
2 41836   0.0411 168.7325 0001540 312.7214 136.8363  1.00270307 35088
GOES 16                 
1 41866U 16071A   26155.61565389 -.00000079  00000+0  00000+0 0  9997
2 41866   0.3081  85.6507 0000671 318.5210 325.8678  1.00271197 34974
FENGYUN 4A              
1 41882U 16077A   26155.82187369 -.00000345  00000+0  00000+0 0  9998
2 41882   2.2915  80.4186 0008164 151.5934  80.8564  1.00276257 34804
CYGFM05                 
1 41884U 16078A   26154.96601564  .00024961  00000+0  34577-3 0  9992
2 41884  34.9581 348.0996 0007632  16.1223 343.9743 15.56053261526694
CYGFM04                 
1 41885U 16078B   26155.68069898  .00032471  00000+0  37572-3 0  9994
2 41885  34.9333 311.6815 0006121  68.1780 291.9596 15.60779544527045
CYGFM02                 
1 41886U 16078C   26155.70488883  .00036507  00000+0  37722-3 0  9998
2 41886  34.9416 306.4143 0007151  70.3471 289.8027 15.63651073527213
CYGFM01                 
1 41887U 16078D   26154.96041245  .00025620  00000+0  34629-3 0  9990
2 41887  34.9412 349.3001 0007494   9.9841 350.1031 15.56708194526640
CYGFM08                 
1 41888U 16078E   26155.71048848  .00029440  00000+0  36007-3 0  9997
2 41888  34.9441 324.2348 0008180  50.6009 309.5439 15.59330720527023
CYGFM07                 
1 41890U 16078G   26155.67043250  .00030412  00000+0  37066-3 0  9994
2 41890  34.9457 312.8541 0006553  67.4735 292.6683 15.59432656527041
CYGFM03                 
1 41891U 16078H   26155.70538863  .00029731  00000+0  36250-3 0  9994
2 41891  34.9411 314.5628 0006121  53.8577 306.2714 15.59429404527023
